{"type": "FeatureCollection", "features": [ {"type": "Feature", "properties": {"norad_id": 32126, "name": "FENGYUN 1C DEB", "group": "fengyun-1c-debris", "lat": 26.130293846065047, "lon": 60.51700825536656, "alt_km": 955.3613549844367, "timestamp": "2025-12-26T23:26:42.413063+00:00", "meta": {"OBJECT_NAME": "FENGYUN 1C DEB", "OBJECT_ID": "1999-025CRU", "EPOCH": "2025-12-14T22:11:18.681792", "MEAN_MOTION": 13.56802944, "ECCENTRICITY": 0.02807648, "INCLINATION": 99.1097, "RA_OF_ASC_NODE": 224.8335, "ARG_OF_PERICENTER": 249.9124, "MEAN_ANOMALY": 107.16, "EPHEMERIS_TYPE": 0, "CLASSIFICATION_TYPE": "U", "NORAD_CAT_ID": 32126, "ELEMENT_SET_NO": 999, "REV_AT_EPOCH": 61744, "BSTAR": 0.001056147, "MEAN_MOTION_DOT": 9.24e-06, "MEAN_MOTION_DDOT": 0}, "tle": {"line1": "1 32126U 99025CRU 25348.92452178  .00000924  00000+0  10561-2 0  9998", "line2": "2 32126  99.1097 224.8335 0280764 249.9124 107.1600 13.56802944617445"}}, "geometry": {"type": "Point", "coordinates": [60.51700825536656, 26.130293846065047]}}, {"type": "Feature", "properties": {"norad_id": 32128, "name": "FENGYUN 1C DEB", "group": "fengyun-1c-debris", "lat": -34.88168460187321, "lon": -139.44017817159263, "alt_km": 669.5628560699288, "timestamp": "2025-12-26T23:26:42.413072+00:00", "meta": {"OBJECT_NAME": "FENGYUN 1C DEB", "OBJECT_ID": "1999-025CRW", "EPOCH": "2025-12-26T08:38:47.203584", "MEAN_MOTION": 13.94261706, "ECCENTRICITY": 0.03974792, "INCLINATION": 99.0308, "RA_OF_ASC_NODE": 46.3206, "ARG_OF_PERICENTER": 185.521, "MEAN_ANOMALY": 174.1503, "EPHEMERIS_TYPE": 0, "CLASSIFICATION_TYPE": "U", "NORAD_CAT_ID": 32128, "ELEMENT_SET_NO": 999, "REV_AT_EPOCH": 63175, "BSTAR": 0.00068445185, "MEAN_MOTION_DOT": 1.709e-05, "MEAN_MOTION_DDOT": 0}, "tle": {"line1": "1 32128U 99025CRW 25360.36026856  .00001709  00000+0  68445-3 0  9999", "line2": "2 32128  99.0308  46.3206 0397479 185.5210 174.1503 13.94261706631751"}}, "geometry": {"type": "Point", "coordinates": [-139.44017817159263, -34.88168460187321]}}, {"type": "Feature", "properties": {"norad_id": 32129, "name": "FENGYUN 1C DEB", "group": "fengyun-1c-debris", "lat": 62.073472763121984, "lon": 102.40162737363089, "alt_km": 774.287500130753, "timestamp": "2025-12-26T23:26:42.413080+00:00", "meta": {"OBJECT_NAME": "FENGYUN 1C DEB", "OBJECT_ID": "1999-025CRX", "EPOCH": "2025-12-24T07:24:14.641056", "MEAN_MOTION": 14.28606563, "ECCENTRICITY": 0.00672143, "INCLINATION": 99.0579, "RA_OF_ASC_NODE": 117.1473, "ARG_OF_PERICENTER": 0.1462, "MEAN_ANOMALY": 26.8014, "EPHEMERIS_TYPE": 0, "CLASSIFICATION_TYPE": "U", "NORAD_CAT_ID": 32129, "ELEMENT_SET_NO": 999, "REV_AT_EPOCH": 94392, "BSTAR": 0.0021405461, "MEAN_MOTION_DOT": 5.462e-05, "MEAN_MOTION_DDOT": 0}, "tle": {"line1": "1 32129U 99025CRX 25358.30850279  .00005462  00000+0  21405-2 0  9999", "line2": "2 32129  99.0579 117.1473 0067214   0.1462  26.8014 14.28606563943924"}}, "geometry": {"type": "Point", "coordinates": [102.40162737363089, 62.073472763121984]}}, {"type": "Feature", "properties": {"norad_id": 32130, "name": "FENGYUN 1C DEB", "group": "fengyun-1c-debris", "lat": 29.882285404130037, "lon": 162.8265752482208, "alt_km": 777.1817423721013, "timestamp": "2025-12-26T23:26:42.413089+00:00", "meta": {"OBJECT_NAME": "FENGYUN 1C DEB", "OBJECT_ID": "1999-025CRY", "EPOCH": "2025-12-26T09:56:29.465088", "MEAN_MOTION": 14.37585253, "ECCENTRICITY": 0.00823146, "INCLINATION": 98.904, "RA_OF_ASC_NODE": 167.4124, "ARG_OF_PERICENTER": 289.5503, "MEAN_ANOMALY": 69.6808, "EPHEMERIS_TYPE": 0, "CLASSIFICATION_TYPE": "U", "NORAD_CAT_ID": 32130, "ELEMENT_SET_NO": 999, "REV_AT_EPOCH": 96431, "BSTAR": 0.00049975738, "MEAN_MOTION_DOT": 1.51e-05, "MEAN_MOTION_DDOT": 0}, "tle": {"line1": "1 32130U 99025CRY 25360.41422992  .00001510  00000+0  49976-3 0  9997", "line2": "2 32130  98.9040 167.4124 0082314 289.5503  69.6808 14.37585253964319"}}, "geometry": {"type": "Point", "coordinates": [162.8265752482208, 29.882285404130037]}}, {"type": "Feature", "properties": {"norad_id": 32133, "name": "FENGYUN 1C DEB", "group": "fengyun-1c-debris", "lat": 52.739732781322374, "lon": -167.28430339396846, "alt_km": 815.946979825766, "timestamp": "2025-12-26T23:26:42.413098+00:00", "meta": {"OBJECT_NAME": "FENGYUN 1C DEB", "OBJECT_ID": "1999-025CSB", "EPOCH": "2025-12-26T11:00:03.872160", "MEAN_MOTION": 14.18082233, "ECCENTRICITY": 0.00363154, "INCLINATION": 98.4322, "RA_OF_ASC_NODE": 0.9785, "ARG_OF_PERICENTER": 62.3488, "MEAN_ANOMALY": 298.1367, "EPHEMERIS_TYPE": 0, "CLASSIFICATION_TYPE": "U", "NORAD_CAT_ID": 32133, "ELEMENT_SET_NO": 999, "REV_AT_EPOCH": 95169, "BSTAR": 0.00019701542, "MEAN_MOTION_DOT": 3.66e-06, "MEAN_MOTION_DDOT": 0}, "tle": {"line1": "1 32133U 99025CSB 25360.45837815  .00000366  00000+0  19702-3 0  9990", "line2": "2 32133  98.4322   0.9785 0036315  62.3488 298.1367 14.18082233951698"}}, "geometry": {"type": "Point", "coordinates": [-167.28430339396846, 52.739732781322374]}}, {"type": "Feature", "properties": {"norad_id": 32134, "name": "FENGYUN 1C DEB", "group": "fengyun-1c-debris", "lat": 25.707933180878655, "lon": -172.00747610221745, "alt_km": 745.8667455183049, "timestamp": "2025-12-26T23:26:42.413107+00:00", "meta": {"OBJECT_NAME": "FENGYUN 1C DEB", "OBJECT_ID": "1999-025CSC", "EPOCH": "2025-12-26T06:08:05.282016", "MEAN_MOTION": 14.21600532, "ECCENTRICITY": 0.02591882, "INCLINATION": 98.5954, "RA_OF_ASC_NODE": 3.1134, "ARG_OF_PERICENTER": 224.2529, "MEAN_ANOMALY": 203.1994, "EPHEMERIS_TYPE": 0, "CLASSIFICATION_TYPE": "U", "NORAD_CAT_ID": 32134, "ELEMENT_SET_NO": 999, "REV_AT_EPOCH": 95339, "BSTAR": 0.00051650422, "MEAN_MOTION_DOT": 1.544e-05, "MEAN_MOTION_DDOT": 0}, "tle": {"line1": "1 32134U 99025CSC 25360.25561669  .00001544  00000+0  51650-3 0  9997", "line2": "2 32134  98.5954   3.1134 0259188 224.2529 203.1994 14.21600532953397"}}, "geometry": {"type": "Point", "coordinates": [-172.00747610221745, 25.707933180878655]}}, {"type": "Feature", "properties": {"norad_id": 32137, "name": "FENGYUN 1C DEB", "group": "fengyun-1c-debris", "lat": 65.1553535969469, "lon": -32.30336519422749, "alt_km": 691.6170226148415, "timestamp": "2025-12-26T23:26:42.413116+00:00", "meta": {"OBJECT_NAME": "FENGYUN 1C DEB", "OBJECT_ID": "1999-025CSF", "EPOCH": "2025-12-23T02:32:31.228800", "MEAN_MOTION": 14.81363769, "ECCENTRICITY": 0.01866336, "INCLINATION": 98.4426, "RA_OF_ASC_NODE": 124.9072, "ARG_OF_PERICENTER": 0.8839, "MEAN_ANOMALY": 359.2666, "EPHEMERIS_TYPE": 0, "CLASSIFICATION_TYPE": "U", "NORAD_CAT_ID": 32137, "ELEMENT_SET_NO": 999, "REV_AT_EPOCH": 66884, "BSTAR": 0.00071247012, "MEAN_MOTION_DOT": 7.465e-05, "MEAN_MOTION_DDOT": 0}, "tle": {"line1": "1 32137U 99025CSF 25357.10591700  .00007465  00000+0  71247-3 0  9991", "line2": "2 32137  98.4426 124.9072 0186633   0.8839 359.2666 14.81363769668848"}}, "geometry": {"type": "Point", "coordinates": [-32.30336519422749, 65.1553535969469]}}, {"type": "Feature", "properties": {"norad_id": 32143, "name": "FENGYUN 1C DEB", "group": "fengyun-1c-debris", "lat": 54.07228415220149, "lon": -34.589654915394426, "alt_km": 753.4534791051274, "timestamp": "2025-12-26T23:26:42.413128+00:00", "meta": {"OBJECT_NAME": "FENGYUN 1C DEB", "OBJECT_ID": "1999-025CSM", "EPOCH": "2025-12-22T15:53:13.985088", "MEAN_MOTION": 14.17977849, "ECCENTRICITY": 0.01046236, "INCLINATION": 98.598, "RA_OF_ASC_NODE": 333.2831, "ARG_OF_PERICENTER": 80.3341, "MEAN_ANOMALY": 280.9635, "EPHEMERIS_TYPE": 0, "CLASSIFICATION_TYPE": "U", "NORAD_CAT_ID": 32143, "ELEMENT_SET_NO": 999, "REV_AT_EPOCH": 96074, "BSTAR": 0.00015176615, "MEAN_MOTION_DOT": 2.86e-06, "MEAN_MOTION_DDOT": 0}, "tle": {"line1": "1 32143U 99025CSM 25356.66196742  .00000286  00000+0  15177-3 0  9999", "line2": "2 32143  98.5980 333.2831 0104623  80.3341 280.9635 14.17977849960748"}}, "geometry": {"type": "Point", "coordinates": [-34.589654915394426, 54.07228415220149]}}, {"type": "Feature", "properties": {"norad_id": 32150, "name": "FENGYUN 1C DEB", "group": "fengyun-1c-debris", "lat": -80.41152931178918, "lon": 98.80329016011723, "alt_km": 741.6233630601218, "timestamp": "2025-12-26T23:26:42.413137+00:00", "meta": {"OBJECT_NAME": "FENGYUN 1C DEB", "OBJECT_ID": "1999-025CSU", "EPOCH": "2025-12-25T21:32:09.470112", "MEAN_MOTION": 14.60695346, "ECCENTRICITY": 0.0171392, "INCLINATION": 99.1909, "RA_OF_ASC_NODE": 24.1832, "ARG_OF_PERICENTER": 27.8988, "MEAN_ANOMALY": 333.1271, "EPHEMERIS_TYPE": 0, "CLASSIFICATION_TYPE": "U", "NORAD_CAT_ID": 32150, "ELEMENT_SET_NO": 999, "REV_AT_EPOCH": 97898, "BSTAR": 0.00016863, "MEAN_MOTION_DOT": 9.42e-06, "MEAN_MOTION_DDOT": 0}, "tle": {"line1": "1 32150U 99025CSU 25359.89733183  .00000942  00000+0  16863-3 0  9993", "line2": "2 32150  99.1909  24.1832 0171392  27.8988 333.1271 14.60695346978980"}}, "geometry": {"type": "Point", "coordinates": [98.80329016011723, -80.41152931178918]}}, {"type": "Feature", "properties": {"norad_id": 32152, "name": "FENGYUN 1C DEB", "group": "fengyun-1c-debris", "lat": -80.63949397736914, "lon": -86.45665697796339, "alt_km": 722.6500032702552, "timestamp": "2025-12-26T23:26:42.413147+00:00", "meta": {"OBJECT_NAME": "FENGYUN 1C DEB", "OBJECT_ID": "1999-025CSW", "EPOCH": "2025-12-21T05:25:01.444224", "MEAN_MOTION": 14.56838784, "ECCENTRICITY": 0.00551981, "INCLINATION": 98.7603, "RA_OF_ASC_NODE": 156.8014, "ARG_OF_PERICENTER": 175.7831, "MEAN_ANOMALY": 184.3842, "EPHEMERIS_TYPE": 0, "CLASSIFICATION_TYPE": "U", "NORAD_CAT_ID": 32152, "ELEMENT_SET_NO": 999, "REV_AT_EPOCH": 62736, "BSTAR": 0.0014652442, "MEAN_MOTION_DOT": 6.654e-05, "MEAN_MOTION_DDOT": 0}, "tle": {"line1": "1 32152U 99025CSW 25355.22571116  .00006654  00000+0  14652-2 0  9993", "line2": "2 32152  98.7603 156.8014 0055198 175.7831 184.3842 14.56838784627361"}}, "geometry": {"type": "Point", "coordinates": [-86.45665697796339, -80.63949397736914]}}]}